{
    "links": {
        "self": "http://www.neowsapp.com/rest/v1/neo/3562549?api_key=iIulBulltgU6a56xZRHN4H3l9WmuAYTsLGpBGhQ2"
    },
    "id": "3562549",
    "neo_reference_id": "3562549",
    "name": "(2011 GC55)",
    "designation": "2011 GC55",
    "nasa_jpl_url": "http://ssd.jpl.nasa.gov/sbdb.cgi?sstr=3562549",
    "absolute_magnitude_h": 23.0,
    "estimated_diameter": {
        "kilometers": {
            "estimated_diameter_min": 0.0667659413,
            "estimated_diameter_max": 0.1492931834
        },
        "meters": {
            "estimated_diameter_min": 66.7659413495,
            "estimated_diameter_max": 149.2931834393
        },
        "miles": {
            "estimated_diameter_min": 0.0414864197,
            "estimated_diameter_max": 0.0927664547
        },
        "feet": {
            "estimated_diameter_min": 219.0483710172,
            "estimated_diameter_max": 489.807047955
        }
    },
    "is_potentially_hazardous_asteroid": false,
    "close_approach_data": [
        {
            "close_approach_date": "1942-04-01",
            "close_approach_date_full": "1942-Apr-01 06:39",
            "epoch_date_close_approach": -875812860000,
            "relative_velocity": {
                "kilometers_per_second": "15.2283148018",
                "kilometers_per_hour": "54821.9332864188",
                "miles_per_hour": "34064.2173801084"
            },
            "miss_distance": {
                "astronomical": "0.0546602489",
                "lunar": "21.2628368221",
                "kilometers": "8177056.809109843",
                "miles": "5080987.4926601134"
            },
            "orbiting_body": "Earth"
        },
        {
            "close_approach_date": "1944-11-16",
            "close_approach_date_full": "1944-Nov-16 09:51",
            "epoch_date_close_approach": -792857340000,
            "relative_velocity": {
                "kilometers_per_second": "17.6356936895",
                "kilometers_per_hour": "63488.4972820506",
                "miles_per_hour": "39449.2832139497"
            },
            "miss_distance": {
                "astronomical": "0.0699126344",
                "lunar": "27.1960147816",
                "kilometers": "10458781.192328728",
                "miles": "6498785.2802353264"
            },
            "orbiting_body": "Mars"
        },
        {
            "close_approach_date": "2006-04-25",
            "close_approach_date_full": "2006-Apr-25 12:46",
            "epoch_date_close_approach": 1145969160000,
            "relative_velocity": {
                "kilometers_per_second": "27.1424845505",
                "kilometers_per_hour": "97712.9443817471",
                "miles_per_hour": "60715.0236909806"
            },
            "miss_distance": {
                "astronomical": "0.4292806808",
                "lunar": "166.9901848312",
                "kilometers": "64219475.479829896",
                "miles": "39904131.6839927248"
            },
            "orbiting_body": "Earth"
        },
        {
            "close_approach_date": "2011-03-30",
            "close_approach_date_full": "2011-Mar-30 05:10",
            "epoch_date_close_approach": 1301461800000,
            "relative_velocity": {
                "kilometers_per_second": "14.1706282472",
                "kilometers_per_hour": "51014.2616899758",
                "miles_per_hour": "31698.2783261964"
            },
            "miss_distance": {
                "astronomical": "0.0489850567",
                "lunar": "19.0551870563",
                "kilometers": "7328060.144149229",
                "miles": "4553445.4275042002"
            },
            "orbiting_body": "Earth"
        },
        {
            "close_approach_date": "2016-05-05",
            "close_approach_date_full": "2016-May-05 10:49",
            "epoch_date_close_approach": 1462445340000,
            "relative_velocity": {
                "kilometers_per_second": "16.7784409666",
                "kilometers_per_hour": "60402.3874796524",
                "miles_per_hour": "37531.6945981207"
            },
            "miss_distance": {
                "astronomical": "0.0581135447",
                "lunar": "22.6061688883",
                "kilometers": "8693662.505269789",
                "miles": "5401991.3871055282"
            },
            "orbiting_body": "Mars"
        }
    ],
    "orbital_data": {
        "orbit_id": "13",
        "orbit_determination_date": "2017-04-06 08:53:46",
        "first_observation_date": "2011-04-06",
        "last_observation_date": "2011-04-30",
        "data_arc_in_days": 24,
        "observations_used": 64,
        "orbit_uncertainty": "7",
        "minimum_orbit_intersection": ".0336674",
        "jupiter_tisserand_invariant": "3.815",
        "epoch_osculation": "2459000.5",
        "eccentricity": ".5811698475454743",
        "semi_major_axis": "1.824304793457632",
        "inclination": "2.775043061094411",
        "ascending_node_longitude": "98.91054007844117",
        "orbital_period": "900.0041785019173",
        "perihelion_distance": ".764073854767382",
        "perihelion_argument": "22.46258979852489",
        "aphelion_distance": "2.884535732147882",
        "perihelion_time": "2459208.319846384687",
        "mean_anomaly": "276.8724473890562",
        "mean_motion": ".3999981428966589",
        "equinox": "J2000",
        "orbit_class": {
            "orbit_class_type": "APO",
            "orbit_class_description": "Near-Earth asteroid orbits which cross the Earth’s orbit similar to that of 1862 Apollo",
            "orbit_class_range": "a (semi-major axis) > 1.0 AU; q (perihelion) < 1.017 AU"
        }
    },
    "is_sentry_object": false
}